{"type": "FeatureCollection", "features": [ {"type": "Feature", "properties": {"norad_id": 31010, "name": "FENGYUN 1C DEB", "group": "fengyun-1c-debris", "lat": -56.849452472057344, "lon": 169.5758663436577, "alt_km": 735.0253335595262, "timestamp": "2025-12-25T16:53:14.943443+00:00", "meta": {"OBJECT_NAME": "FENGYUN 1C DEB", "OBJECT_ID": "1999-025BDC", "EPOCH": "2025-12-24T09:09:46.721664", "MEAN_MOTION": 14.25975866, "ECCENTRICITY": 0.01134696, "INCLINATION": 101.7255, "RA_OF_ASC_NODE": 149.2717, "ARG_OF_PERICENTER": 324.0111, "MEAN_ANOMALY": 35.3454, "EPHEMERIS_TYPE": 0, "CLASSIFICATION_TYPE": "U", "NORAD_CAT_ID": 31010, "ELEMENT_SET_NO": 999, "REV_AT_EPOCH": 95795, "BSTAR": 0.0034579422, "MEAN_MOTION_DOT": 8.768e-05, "MEAN_MOTION_DDOT": 0}, "tle": {"line1": "1 31010U 99025BDC 25358.38179076  .00008768  00000+0  34579-2 0  9992", "line2": "2 31010 101.7255 149.2717 0113469 324.0111  35.3454 14.25975866957957"}}, "geometry": {"type": "Point", "coordinates": [169.5758663436577, -56.849452472057344]}}, {"type": "Feature", "properties": {"norad_id": 31012, "name": "FENGYUN 1C DEB", "group": "fengyun-1c-debris", "lat": 47.32813683314084, "lon": 87.8640967511209, "alt_km": 785.5471972923278, "timestamp": "2025-12-25T16:53:14.943453+00:00", "meta": {"OBJECT_NAME": "FENGYUN 1C DEB", "OBJECT_ID": "1999-025BDE", "EPOCH": "2025-12-25T00:01:08.766624", "MEAN_MOTION": 14.27873837, "ECCENTRICITY": 0.00816312, "INCLINATION": 98.9115, "RA_OF_ASC_NODE": 257.3478, "ARG_OF_PERICENTER": 215.4388, "MEAN_ANOMALY": 266.4683, "EPHEMERIS_TYPE": 0, "CLASSIFICATION_TYPE": "U", "NORAD_CAT_ID": 31012, "ELEMENT_SET_NO": 999, "REV_AT_EPOCH": 97922, "BSTAR": 0.00016884042, "MEAN_MOTION_DOT": 3.86e-06, "MEAN_MOTION_DDOT": 0}, "tle": {"line1": "1 31012U 99025BDE 25359.00079591  .00000386  00000+0  16884-3 0  9993", "line2": "2 31012  98.9115 257.3478 0081631 215.4388 266.4683 14.27873837979222"}}, "geometry": {"type": "Point", "coordinates": [87.8640967511209, 47.32813683314084]}}, {"type": "Feature", "properties": {"norad_id": 31014, "name": "FENGYUN 1C DEB", "group": "fengyun-1c-debris", "lat": 77.16918751724592, "lon": -161.83244765841988, "alt_km": 857.6230949694736, "timestamp": "2025-12-25T16:53:14.943464+00:00", "meta": {"OBJECT_NAME": "FENGYUN 1C DEB", "OBJECT_ID": "1999-025BDG", "EPOCH": "2025-12-24T21:47:37.838112", "MEAN_MOTION": 13.9849289, "ECCENTRICITY": 0.0088519, "INCLINATION": 98.8694, "RA_OF_ASC_NODE": 334.1175, "ARG_OF_PERICENTER": 159.9527, "MEAN_ANOMALY": 257.0492, "EPHEMERIS_TYPE": 0, "CLASSIFICATION_TYPE": "U", "NORAD_CAT_ID": 31014, "ELEMENT_SET_NO": 999, "REV_AT_EPOCH": 96006, "BSTAR": -9.868e-05, "MEAN_MOTION_DOT": -1.88e-06, "MEAN_MOTION_DDOT": 0}, "tle": {"line1": "1 31014U 99025BDG 25358.90807683 -.00000188  00000+0 -98680-4 0  9991", "line2": "2 31014  98.8694 334.1175 0088519 159.9527 257.0492 13.98492890960061"}}, "geometry": {"type": "Point", "coordinates": [-161.83244765841988, 77.16918751724592]}}, {"type": "Feature", "properties": {"norad_id": 31016, "name": "FENGYUN 1C DEB", "group": "fengyun-1c-debris", "lat": -80.66479416230871, "lon": 130.62115444984104, "alt_km": 727.810970438959, "timestamp": "2025-12-25T16:53:14.943474+00:00", "meta": {"OBJECT_NAME": "FENGYUN 1C DEB", "OBJECT_ID": "1999-025BDJ", "EPOCH": "2025-12-23T23:38:38.001984", "MEAN_MOTION": 14.30511594, "ECCENTRICITY": 0.0112136, "INCLINATION": 98.4358, "RA_OF_ASC_NODE": 13.4764, "ARG_OF_PERICENTER": 240.6193, "MEAN_ANOMALY": 179.8775, "EPHEMERIS_TYPE": 0, "CLASSIFICATION_TYPE": "U", "NORAD_CAT_ID": 31016, "ELEMENT_SET_NO": 999, "REV_AT_EPOCH": 97631, "BSTAR": 0.0002533, "MEAN_MOTION_DOT": 6.63e-06, "MEAN_MOTION_DDOT": 0}, "tle": {"line1": "1 31016U 99025BDJ 25357.98516206  .00000663  00000+0  25330-3 0  9995", "line2": "2 31016  98.4358  13.4764 0112136 240.6193 179.8775 14.30511594976317"}}, "geometry": {"type": "Point", "coordinates": [130.62115444984104, -80.66479416230871]}}, {"type": "Feature", "properties": {"norad_id": 31017, "name": "FENGYUN 1C DEB", "group": "fengyun-1c-debris", "lat": -44.93550916085939, "lon": -5.876678575711194, "alt_km": 788.4485123634277, "timestamp": "2025-12-25T16:53:14.943484+00:00", "meta": {"OBJECT_NAME": "FENGYUN 1C DEB", "OBJECT_ID": "1999-025BDK", "EPOCH": "2025-12-24T11:08:51.988704", "MEAN_MOTION": 14.08840327, "ECCENTRICITY": 0.01126302, "INCLINATION": 98.6806, "RA_OF_ASC_NODE": 344.1622, "ARG_OF_PERICENTER": 316.8973, "MEAN_ANOMALY": 196.2932, "EPHEMERIS_TYPE": 0, "CLASSIFICATION_TYPE": "U", "NORAD_CAT_ID": 31017, "ELEMENT_SET_NO": 999, "REV_AT_EPOCH": 96461, "BSTAR": 0.00034768419, "MEAN_MOTION_DOT": 5.93e-06, "MEAN_MOTION_DDOT": 0}, "tle": {"line1": "1 31017U 99025BDK 25358.46449061  .00000593  00000+0  34768-3 0  9991", "line2": "2 31017  98.6806 344.1622 0112630 316.8973 196.2932 14.08840327964618"}}, "geometry": {"type": "Point", "coordinates": [-5.876678575711194, -44.93550916085939]}}, {"type": "Feature", "properties": {"norad_id": 31018, "name": "FENGYUN 1C DEB", "group": "fengyun-1c-debris", "lat": -17.003340093201835, "lon": -96.1224305231058, "alt_km": 852.7994858477914, "timestamp": "2025-12-25T16:53:14.943494+00:00", "meta": {"OBJECT_NAME": "FENGYUN 1C DEB", "OBJECT_ID": "1999-025BDL", "EPOCH": "2025-12-23T11:25:53.699808", "MEAN_MOTION": 14.16987914, "ECCENTRICITY": 0.00583651, "INCLINATION": 99.0245, "RA_OF_ASC_NODE": 84.4038, "ARG_OF_PERICENTER": 95.8947, "MEAN_ANOMALY": 264.8883, "EPHEMERIS_TYPE": 0, "CLASSIFICATION_TYPE": "U", "NORAD_CAT_ID": 31018, "ELEMENT_SET_NO": 999, "REV_AT_EPOCH": 96207, "BSTAR": 0.0015318638, "MEAN_MOTION_DOT": 3.085e-05, "MEAN_MOTION_DDOT": 0}, "tle": {"line1": "1 31018U 99025BDL 25357.47631597  .00003085  00000+0  15319-2 0  9998", "line2": "2 31018  99.0245  84.4038 0058365  95.8947 264.8883 14.16987914962073"}}, "geometry": {"type": "Point", "coordinates": [-96.1224305231058, -17.003340093201835]}}, {"type": "Feature", "properties": {"norad_id": 31019, "name": "FENGYUN 1C DEB", "group": "fengyun-1c-debris", "lat": 79.52416630829227, "lon": 69.14922819397233, "alt_km": 2608.930901874427, "timestamp": "2025-12-25T16:53:14.943505+00:00", "meta": {"OBJECT_NAME": "FENGYUN 1C DEB", "OBJECT_ID": "1999-025BDM", "EPOCH": "2025-12-21T19:04:30.482400", "MEAN_MOTION": 11.82992381, "ECCENTRICITY": 0.11182228, "INCLINATION": 98.7026, "RA_OF_ASC_NODE": 190.6549, "ARG_OF_PERICENTER": 266.0498, "MEAN_ANOMALY": 114.5316, "EPHEMERIS_TYPE": 0, "CLASSIFICATION_TYPE": "U", "NORAD_CAT_ID": 31019, "ELEMENT_SET_NO": 999, "REV_AT_EPOCH": 55288, "BSTAR": 0.0023777333, "MEAN_MOTION_DOT": 8.64e-06, "MEAN_MOTION_DDOT": 0}, "tle": {"line1": "1 31019U 99025BDM 25355.79479725  .00000864  00000+0  23777-2 0  9994", "line2": "2 31019  98.7026 190.6549 1118222 266.0498 114.5316 11.82992381552887"}}, "geometry": {"type": "Point", "coordinates": [69.14922819397233, 79.52416630829227]}}, {"type": "Feature", "properties": {"norad_id": 31021, "name": "FENGYUN 1C DEB", "group": "fengyun-1c-debris", "lat": -4.229797768877502, "lon": -70.00948752342151, "alt_km": 466.09290995291576, "timestamp": "2025-12-25T16:53:14.943515+00:00", "meta": {"OBJECT_NAME": "FENGYUN 1C DEB", "OBJECT_ID": "1999-025BDP", "EPOCH": "2025-12-25T01:23:52.741248", "MEAN_MOTION": 14.75458372, "ECCENTRICITY": 0.02681902, "INCLINATION": 98.3478, "RA_OF_ASC_NODE": 109.946, "ARG_OF_PERICENTER": 202.566, "MEAN_ANOMALY": 156.3576, "EPHEMERIS_TYPE": 0, "CLASSIFICATION_TYPE": "U", "NORAD_CAT_ID": 31021, "ELEMENT_SET_NO": 999, "REV_AT_EPOCH": 73614, "BSTAR": 0.00093996638, "MEAN_MOTION_DOT": 0.00011493, "MEAN_MOTION_DDOT": 0}, "tle": {"line1": "1 31021U 99025BDP 25359.05824932  .00011493  00000+0  93997-3 0  9996", "line2": "2 31021  98.3478 109.9460 0268190 202.5660 156.3576 14.75458372736144"}}, "geometry": {"type": "Point", "coordinates": [-70.00948752342151, -4.229797768877502]}}, {"type": "Feature", "properties": {"norad_id": 31022, "name": "FENGYUN 1C DEB", "group": "fengyun-1c-debris", "lat": 76.54321985543845, "lon": -160.84254084718373, "alt_km": 839.6652257395708, "timestamp": "2025-12-25T16:53:14.943525+00:00", "meta": {"OBJECT_NAME": "FENGYUN 1C DEB", "OBJECT_ID": "1999-025BDQ", "EPOCH": "2025-12-23T23:03:36.550080", "MEAN_MOTION": 13.90460502, "ECCENTRICITY": 0.0110336, "INCLINATION": 99.5163, "RA_OF_ASC_NODE": 241.8824, "ARG_OF_PERICENTER": 91.8783, "MEAN_ANOMALY": 269.5015, "EPHEMERIS_TYPE": 0, "CLASSIFICATION_TYPE": "U", "NORAD_CAT_ID": 31022, "ELEMENT_SET_NO": 999, "REV_AT_EPOCH": 62164, "BSTAR": 0.00047398, "MEAN_MOTION_DOT": 5.73e-06, "MEAN_MOTION_DDOT": 0}, "tle": {"line1": "1 31022U 99025BDQ 25357.96083970  .00000573  00000+0  47398-3 0  9995", "line2": "2 31022  99.5163 241.8824 0110336  91.8783 269.5015 13.90460502621649"}}, "geometry": {"type": "Point", "coordinates": [-160.84254084718373, 76.54321985543845]}}, {"type": "Feature", "properties": {"norad_id": 31023, "name": "FENGYUN 1C DEB", "group": "fengyun-1c-debris", "lat": -27.89171153004812, "lon": 160.11430368994917, "alt_km": 821.4519164509338, "timestamp": "2025-12-25T16:53:14.943561+00:00", "meta": {"OBJECT_NAME": "FENGYUN 1C DEB", "OBJECT_ID": "1999-025BDR", "EPOCH": "2025-12-20T19:49:13.315584", "MEAN_MOTION": 14.06693358, "ECCENTRICITY": 0.00824044, "INCLINATION": 98.8149, "RA_OF_ASC_NODE": 340.0727, "ARG_OF_PERICENTER": 198.6079, "MEAN_ANOMALY": 161.2072, "EPHEMERIS_TYPE": 0, "CLASSIFICATION_TYPE": "U", "NORAD_CAT_ID": 31023, "ELEMENT_SET_NO": 999, "REV_AT_EPOCH": 69615, "BSTAR": 0.00023624773, "MEAN_MOTION_DOT": 3.61e-06, "MEAN_MOTION_DDOT": 0}, "tle": {"line1": "1 31023U 99025BDR 25354.82584856  .00000361  00000+0  23625-3 0  9999", "line2": "2 31023  98.8149 340.0727 0082404 198.6079 161.2072 14.06693358696152"}}, "geometry": {"type": "Point", "coordinates": [160.11430368994917, -27.89171153004812]}}]}